{"type": "FeatureCollection", "features": [ {"type": "Feature", "properties": {"norad_id": 29820, "name": "FENGYUN 1C DEB", "group": "fengyun-1c-debris", "lat": -59.40233266241929, "lon": 154.31586256488376, "alt_km": 840.4247892304884, "timestamp": "2025-12-08T08:59:01.037256+00:00", "meta": {"OBJECT_NAME": "FENGYUN 1C DEB", "OBJECT_ID": "1999-025DN", "EPOCH": "2025-12-07T23:36:22.591584", "MEAN_MOTION": 14.02592079, "ECCENTRICITY": 0.00718565, "INCLINATION": 98.8315, "RA_OF_ASC_NODE": 349.1797, "ARG_OF_PERICENTER": 251.1223, "MEAN_ANOMALY": 177.7379, "EPHEMERIS_TYPE": 0, "CLASSIFICATION_TYPE": "U", "NORAD_CAT_ID": 29820, "ELEMENT_SET_NO": 999, "REV_AT_EPOCH": 96493, "BSTAR": 0.0007398577, "MEAN_MOTION_DOT": 1.123e-05, "MEAN_MOTION_DDOT": 0}, "tle": {"line1": "1 29820U 99025DN  25341.98359481  .00001123  00000+0  73986-3 0  9990", "line2": "2 29820  98.8315 349.1797 0071856 251.1223 177.7379 14.02592079964931"}}, "geometry": {"type": "Point", "coordinates": [154.31586256488376, -59.40233266241929]}}, {"type": "Feature", "properties": {"norad_id": 29821, "name": "FENGYUN 1C DEB", "group": "fengyun-1c-debris", "lat": 20.611645263908958, "lon": -139.22205060531462, "alt_km": 608.9937398340144, "timestamp": "2025-12-08T08:59:01.037266+00:00", "meta": {"OBJECT_NAME": "FENGYUN 1C DEB", "OBJECT_ID": "1999-025DP", "EPOCH": "2025-12-07T22:50:14.352864", "MEAN_MOTION": 14.11035124, "ECCENTRICITY": 0.03764434, "INCLINATION": 98.8735, "RA_OF_ASC_NODE": 36.9908, "ARG_OF_PERICENTER": 134.2195, "MEAN_ANOMALY": 36.6328, "EPHEMERIS_TYPE": 0, "CLASSIFICATION_TYPE": "U", "NORAD_CAT_ID": 29821, "ELEMENT_SET_NO": 999, "REV_AT_EPOCH": 96443, "BSTAR": 0.001008169, "MEAN_MOTION_DOT": 3.49e-05, "MEAN_MOTION_DDOT": 0}, "tle": {"line1": "1 29821U 99025DP  25341.95155501  .00003490  00000+0  10082-2 0  9991", "line2": "2 29821  98.8735  36.9908 0376443 134.2195  36.6328 14.11035124964437"}}, "geometry": {"type": "Point", "coordinates": [-139.22205060531462, 20.611645263908958]}}, {"type": "Feature", "properties": {"norad_id": 29827, "name": "FENGYUN 1C DEB", "group": "fengyun-1c-debris", "lat": -26.3359529632064, "lon": -22.02010102267117, "alt_km": 807.1597536933368, "timestamp": "2025-12-08T08:59:01.037276+00:00", "meta": {"OBJECT_NAME": "FENGYUN 1C DEB", "OBJECT_ID": "1999-025DV", "EPOCH": "2025-12-07T23:13:58.139328", "MEAN_MOTION": 14.21675329, "ECCENTRICITY": 0.00252512, "INCLINATION": 98.6016, "RA_OF_ASC_NODE": 333.287, "ARG_OF_PERICENTER": 336.5777, "MEAN_ANOMALY": 78.6876, "EPHEMERIS_TYPE": 0, "CLASSIFICATION_TYPE": "U", "NORAD_CAT_ID": 29827, "ELEMENT_SET_NO": 999, "REV_AT_EPOCH": 97795, "BSTAR": 0.00052692741, "MEAN_MOTION_DOT": 1.118e-05, "MEAN_MOTION_DDOT": 0}, "tle": {"line1": "1 29827U 99025DV  25341.96803402  .00001118  00000+0  52693-3 0  9998", "line2": "2 29827  98.6016 333.2870 0025251 336.5777  78.6876 14.21675329977958"}}, "geometry": {"type": "Point", "coordinates": [-22.02010102267117, -26.3359529632064]}}, {"type": "Feature", "properties": {"norad_id": 29828, "name": "FENGYUN 1C DEB", "group": "fengyun-1c-debris", "lat": -61.57842529330118, "lon": -168.6069706322373, "alt_km": 860.7942830775928, "timestamp": "2025-12-08T08:59:01.037287+00:00", "meta": {"OBJECT_NAME": "FENGYUN 1C DEB", "OBJECT_ID": "1999-025DW", "EPOCH": "2025-12-07T09:44:42.148896", "MEAN_MOTION": 14.08143472, "ECCENTRICITY": 0.00612657, "INCLINATION": 98.7704, "RA_OF_ASC_NODE": 27.0263, "ARG_OF_PERICENTER": 170.946, "MEAN_ANOMALY": 205.4126, "EPHEMERIS_TYPE": 0, "CLASSIFICATION_TYPE": "U", "NORAD_CAT_ID": 29828, "ELEMENT_SET_NO": 999, "REV_AT_EPOCH": 96662, "BSTAR": 0.0014367682, "MEAN_MOTION_DOT": 2.45e-05, "MEAN_MOTION_DDOT": 0}, "tle": {"line1": "1 29828U 99025DW  25341.40604339  .00002450  00000+0  14368-2 0  9992", "line2": "2 29828  98.7704  27.0263 0061265 170.9460 205.4126 14.08143472966626"}}, "geometry": {"type": "Point", "coordinates": [-168.6069706322373, -61.57842529330118]}}, {"type": "Feature", "properties": {"norad_id": 29832, "name": "FENGYUN 1C DEB", "group": "fengyun-1c-debris", "lat": -51.190416153481124, "lon": -97.5834371403467, "alt_km": 650.5546780112636, "timestamp": "2025-12-08T08:59:01.037297+00:00", "meta": {"OBJECT_NAME": "FENGYUN 1C DEB", "OBJECT_ID": "1999-025EA", "EPOCH": "2025-12-07T20:21:46.923264", "MEAN_MOTION": 14.56543088, "ECCENTRICITY": 0.01923521, "INCLINATION": 98.8194, "RA_OF_ASC_NODE": 92.9902, "ARG_OF_PERICENTER": 298.1079, "MEAN_ANOMALY": 60.0792, "EPHEMERIS_TYPE": 0, "CLASSIFICATION_TYPE": "U", "NORAD_CAT_ID": 29832, "ELEMENT_SET_NO": 999, "REV_AT_EPOCH": 184, "BSTAR": 0.00025533059, "MEAN_MOTION_DOT": 1.396e-05, "MEAN_MOTION_DDOT": 0}, "tle": {"line1": "1 29832U 99025EA  25341.84845976  .00001396  00000+0  25533-3 0  9994", "line2": "2 29832  98.8194  92.9902 0192352 298.1079  60.0792 14.56543088  1845"}}, "geometry": {"type": "Point", "coordinates": [-97.5834371403467, -51.190416153481124]}}, {"type": "Feature", "properties": {"norad_id": 29833, "name": "FENGYUN 1C DEB", "group": "fengyun-1c-debris", "lat": 58.55576097980218, "lon": -51.11241729460425, "alt_km": 642.2151885712028, "timestamp": "2025-12-08T08:59:01.037307+00:00", "meta": {"OBJECT_NAME": "FENGYUN 1C DEB", "OBJECT_ID": "1999-025EB", "EPOCH": "2025-12-07T21:26:21.968448", "MEAN_MOTION": 14.9091176, "ECCENTRICITY": 0.00891514, "INCLINATION": 99.0768, "RA_OF_ASC_NODE": 323.4912, "ARG_OF_PERICENTER": 272.8526, "MEAN_ANOMALY": 86.2488, "EPHEMERIS_TYPE": 0, "CLASSIFICATION_TYPE": "U", "NORAD_CAT_ID": 29833, "ELEMENT_SET_NO": 999, "REV_AT_EPOCH": 499, "BSTAR": 0.0016993589, "MEAN_MOTION_DOT": 0.00018046, "MEAN_MOTION_DDOT": 0}, "tle": {"line1": "1 29833U 99025EB  25341.89330982  .00018046  00000+0  16994-2 0  9996", "line2": "2 29833  99.0768 323.4912 0089151 272.8526  86.2488 14.90911760  4992"}}, "geometry": {"type": "Point", "coordinates": [-51.11241729460425, 58.55576097980218]}}, {"type": "Feature", "properties": {"norad_id": 29835, "name": "FENGYUN 1C DEB", "group": "fengyun-1c-debris", "lat": -80.65680836370785, "lon": -174.47046483965158, "alt_km": 842.3976221207822, "timestamp": "2025-12-08T08:59:01.037321+00:00", "meta": {"OBJECT_NAME": "FENGYUN 1C DEB", "OBJECT_ID": "1999-025ED", "EPOCH": "2025-12-07T22:18:04.669344", "MEAN_MOTION": 14.43370547, "ECCENTRICITY": 0.01681164, "INCLINATION": 99.0255, "RA_OF_ASC_NODE": 110.031, "ARG_OF_PERICENTER": 51.4294, "MEAN_ANOMALY": 70.8257, "EPHEMERIS_TYPE": 0, "CLASSIFICATION_TYPE": "U", "NORAD_CAT_ID": 29835, "ELEMENT_SET_NO": 999, "REV_AT_EPOCH": 99425, "BSTAR": 0.00010321031, "MEAN_MOTION_DOT": 3.57e-06, "MEAN_MOTION_DDOT": 0}, "tle": {"line1": "1 29835U 99025ED  25341.92922071  .00000357  00000+0  10321-3 0  9993", "line2": "2 29835  99.0255 110.0310 0168116  51.4294  70.8257 14.43370547994259"}}, "geometry": {"type": "Point", "coordinates": [-174.47046483965158, -80.65680836370785]}}, {"type": "Feature", "properties": {"norad_id": 29836, "name": "FENGYUN 1C DEB", "group": "fengyun-1c-debris", "lat": -3.538103409193431, "lon": 78.91590779147718, "alt_km": 799.7814281762712, "timestamp": "2025-12-08T08:59:01.037332+00:00", "meta": {"OBJECT_NAME": "FENGYUN 1C DEB", "OBJECT_ID": "1999-025EE", "EPOCH": "2025-12-07T18:53:01.259232", "MEAN_MOTION": 14.54053258, "ECCENTRICITY": 0.01543858, "INCLINATION": 98.1883, "RA_OF_ASC_NODE": 77.8309, "ARG_OF_PERICENTER": 217.7409, "MEAN_ANOMALY": 304.171, "EPHEMERIS_TYPE": 0, "CLASSIFICATION_TYPE": "U", "NORAD_CAT_ID": 29836, "ELEMENT_SET_NO": 999, "REV_AT_EPOCH": 63483, "BSTAR": 0.0011619916, "MEAN_MOTION_DOT": 5.698e-05, "MEAN_MOTION_DDOT": 0}, "tle": {"line1": "1 29836U 99025EE  25341.78682013  .00005698  00000+0  11620-2 0  9992", "line2": "2 29836  98.1883  77.8309 0154385 217.7409 304.1710 14.54053258634834"}}, "geometry": {"type": "Point", "coordinates": [78.91590779147718, -3.538103409193431]}}, {"type": "Feature", "properties": {"norad_id": 29841, "name": "FENGYUN 1C DEB", "group": "fengyun-1c-debris", "lat": 48.238690166790256, "lon": 119.35485930044304, "alt_km": 847.7951045186319, "timestamp": "2025-12-08T08:59:01.037342+00:00", "meta": {"OBJECT_NAME": "FENGYUN 1C DEB", "OBJECT_ID": "1999-025EK", "EPOCH": "2025-12-07T19:14:14.104896", "MEAN_MOTION": 14.46437075, "ECCENTRICITY": 0.02009165, "INCLINATION": 98.8181, "RA_OF_ASC_NODE": 288.7467, "ARG_OF_PERICENTER": 348.5072, "MEAN_ANOMALY": 40.2663, "EPHEMERIS_TYPE": 0, "CLASSIFICATION_TYPE": "U", "NORAD_CAT_ID": 29841, "ELEMENT_SET_NO": 999, "REV_AT_EPOCH": 99252, "BSTAR": 0.0010556986, "MEAN_MOTION_DOT": 4.824e-05, "MEAN_MOTION_DDOT": 0}, "tle": {"line1": "1 29841U 99025EK  25341.80155214  .00004824  00000+0  10557-2 0  9997", "line2": "2 29841  98.8181 288.7467 0200916 348.5072  40.2663 14.46437075992529"}}, "geometry": {"type": "Point", "coordinates": [119.35485930044304, 48.238690166790256]}}, {"type": "Feature", "properties": {"norad_id": 29842, "name": "FENGYUN 1C DEB", "group": "fengyun-1c-debris", "lat": -36.61955346523804, "lon": 76.19718604609929, "alt_km": 761.4123589963901, "timestamp": "2025-12-08T08:59:01.037352+00:00", "meta": {"OBJECT_NAME": "FENGYUN 1C DEB", "OBJECT_ID": "1999-025EL", "EPOCH": "2025-12-07T12:20:10.375872", "MEAN_MOTION": 14.60134159, "ECCENTRICITY": 0.01092278, "INCLINATION": 98.5695, "RA_OF_ASC_NODE": 68.8735, "ARG_OF_PERICENTER": 181.3758, "MEAN_ANOMALY": 301.3123, "EPHEMERIS_TYPE": 0, "CLASSIFICATION_TYPE": "U", "NORAD_CAT_ID": 29842, "ELEMENT_SET_NO": 999, "REV_AT_EPOCH": 99277, "BSTAR": 0.0024115841, "MEAN_MOTION_DOT": 0.00012587, "MEAN_MOTION_DDOT": 0}, "tle": {"line1": "1 29842U 99025EL  25341.51400898  .00012587  00000+0  24116-2 0  9998", "line2": "2 29842  98.5695  68.8735 0109227 181.3758 301.3123 14.60134159992771"}}, "geometry": {"type": "Point", "coordinates": [76.19718604609929, -36.61955346523804]}}]}